[{"OBJECT_NAME":"STARLINK-5961","OBJECT_ID":"2023-083AQ","EPOCH":"2026-03-09T22:00:01.999584","MEAN_MOTION":15.0478658,"ECCENTRICITY":0.00024722,"INCLINATION":43.0015,"RA_OF_ASC_NODE":67.5695,"ARG_OF_PERICENTER":269.922,"MEAN_ANOMALY":109.0667,"EPHEMERIS_TYPE":0,"CLASSIFICATION_TYPE":"U","NORAD_CAT_ID":56914,"ELEMENT_SET_NO":999,"REV_AT_EPOCH":573,"BSTAR":0.007440428,"MEAN_MOTION_DOT":0.00108177,"MEAN_MOTION_DDOT":0},{"OBJECT_NAME":"SS 1","OBJECT_ID":"1977-112D","EPOCH":"2026-03-09T21:40:15.039840","MEAN_MOTION":13.90217134,"ECCENTRICITY":0.05251109,"INCLINATION":63.3361,"RA_OF_ASC_NODE":274.0361,"ARG_OF_PERICENTER":161.1049,"MEAN_ANOMALY":201.0326,"EPHEMERIS_TYPE":0,"CLASSIFICATION_TYPE":"U","NORAD_CAT_ID":10529,"ELEMENT_SET_NO":999,"REV_AT_EPOCH":33839,"BSTAR":0.00031610815,"MEAN_MOTION_DOT":1.081e-5,"MEAN_MOTION_DDOT":0}]
